RADARSAT-2              
1 32382U 07061A   26195.18651001  .00000155  00000+0  76878-4 0  9997
2 32382  98.5779 201.7335 0001330  84.4548 275.6786 14.29983592969812
